[{"OBJECT_NAME":"MUOS-3","OBJECT_ID":"2015-002A","EPOCH":"2026-03-28T18:07:53.554944","MEAN_MOTION":1.00271888,"ECCENTRICITY":0.00519123,"INCLINATION":4.3665,"RA_OF_ASC_NODE":43.1118,"ARG_OF_PERICENTER":183.0971,"MEAN_ANOMALY":216.4874,"EPHEMERIS_TYPE":0,"CLASSIFICATION_TYPE":"U","NORAD_CAT_ID":40374,"ELEMENT_SET_NO":999,"REV_AT_EPOCH":4078,"BSTAR":0,"MEAN_MOTION_DOT":-1.44e-6,"MEAN_MOTION_DDOT":0},{"OBJECT_NAME":"INMARSAT 5-F2","OBJECT_ID":"2015-005A","EPOCH":"2026-03-28T11:06:04.530816","MEAN_MOTION":1.00268706,"ECCENTRICITY":7.48e-5,"INCLINATION":0.023,"RA_OF_ASC_NODE":168.0005,"ARG_OF_PERICENTER":177.805,"MEAN_ANOMALY":311.6167,"EPHEMERIS_TYPE":0,"CLASSIFICATION_TYPE":"U","NORAD_CAT_ID":40384,"ELEMENT_SET_NO":999,"REV_AT_EPOCH":4018,"BSTAR":0,"MEAN_MOTION_DOT":0,"MEAN_MOTION_DDOT":0},{"OBJECT_NAME":"ABS-3A","OBJECT_ID":"2015-010A","EPOCH":"2026-03-28T16:28:55.544736","MEAN_MOTION":1.00270505,"ECCENTRICITY":0.0001477,"INCLINATION":0.0106,"RA_OF_ASC_NODE":130.3605,"ARG_OF_PERICENTER":180.6232,"MEAN_ANOMALY":119.3617,"EPHEMERIS_TYPE":0,"CLASSIFICATION_TYPE":"U","NORAD_CAT_ID":40424,"ELEMENT_SET_NO":999,"REV_AT_EPOCH":4056,"BSTAR":0,"MEAN_MOTION_DOT":-4.6e-7,"MEAN_MOTION_DDOT":0},{"OBJECT_NAME":"EUTELSAT 115 WEST B","OBJECT_ID":"2015-010B","EPOCH":"2026-03-28T16:22:26.584032","MEAN_MOTION":1.00271912,"ECCENTRICITY":1.596e-5,"INCLINATION":0.0211,"RA_OF_ASC_NODE":36.3497,"ARG_OF_PERICENTER":42.4786,"MEAN_ANOMALY":237.9797,"EPHEMERIS_TYPE":0,"CLASSIFICATION_TYPE":"U","NORAD_CAT_ID":40425,"ELEMENT_SET_NO":999,"REV_AT_EPOCH":4058,"BSTAR":0,"MEAN_MOTION_DOT":-4.5e-7,"MEAN_MOTION_DDOT":0},{"OBJECT_NAME":"EXPRESS-AM7","OBJECT_ID":"2015-012A","EPOCH":"2026-03-28T20:06:32.737824","MEAN_MOTION":1.00273034,"ECCENTRICITY":0.00030163,"INCLINATION":0.0188,"RA_OF_ASC_NODE":111.9953,"ARG_OF_PERICENTER":239.6999,"MEAN_ANOMALY":176.1656,"EPHEMERIS_TYPE":0,"CLASSIFICATION_TYPE":"U","NORAD_CAT_ID":40505,"ELEMENT_SET_NO":999,"REV_AT_EPOCH":4020,"BSTAR":0,"MEAN_MOTION_DOT":1.31e-6,"MEAN_MOTION_DDOT":0},{"OBJECT_NAME":"BEIDOU-3S IGSO-1S","OBJECT_ID":"2015-019A","EPOCH":"2026-03-23T06:58:51.098016","MEAN_MOTION":1.00268843,"ECCENTRICITY":0.0036261,"INCLINATION":49.3559,"RA_OF_ASC_NODE":296.4949,"ARG_OF_PERICENTER":190.1236,"MEAN_ANOMALY":255.118,"EPHEMERIS_TYPE":0,"CLASSIFICATION_TYPE":"U","NORAD_CAT_ID":40549,"ELEMENT_SET_NO":999,"REV_AT_EPOCH":4021,"BSTAR":0,"MEAN_MOTION_DOT":-1.63e-6,"MEAN_MOTION_DDOT":0},{"OBJECT_NAME":"THOR 7","OBJECT_ID":"2015-022A","EPOCH":"2026-03-28T14:46:57.821664","MEAN_MOTION":1.00273117,"ECCENTRICITY":0.0002601,"INCLINATION":0.013,"RA_OF_ASC_NODE":191.6297,"ARG_OF_PERICENTER":173.1423,"MEAN_ANOMALY":42.3476,"EPHEMERIS_TYPE":0,"CLASSIFICATION_TYPE":"U","NORAD_CAT_ID":40613,"ELEMENT_SET_NO":999,"REV_AT_EPOCH":4000,"BSTAR":0,"MEAN_MOTION_DOT":-2.8e-7,"MEAN_MOTION_DDOT":0},{"OBJECT_NAME":"TURKMENALEM52E/MONACOSAT","OBJECT_ID":"2015-023A","EPOCH":"2026-03-28T21:52:39.788832","MEAN_MOTION":1.00272903,"ECCENTRICITY":0.00030218,"INCLINATION":0.0399,"RA_OF_ASC_NODE":88.538,"ARG_OF_PERICENTER":280.163,"MEAN_ANOMALY":197.7843,"EPHEMERIS_TYPE":0,"CLASSIFICATION_TYPE":"U","NORAD_CAT_ID":40617,"ELEMENT_SET_NO":999,"REV_AT_EPOCH":4004,"BSTAR":0,"MEAN_MOTION_DOT":8.4e-7,"MEAN_MOTION_DDOT":0},{"OBJECT_NAME":"DIRECTV 15","OBJECT_ID":"2015-026A","EPOCH":"2026-03-28T16:00:28.272960","MEAN_MOTION":1.00273031,"ECCENTRICITY":5.122e-5,"INCLINATION":0.0304,"RA_OF_ASC_NODE":95.2178,"ARG_OF_PERICENTER":96.5375,"MEAN_ANOMALY":131.558,"EPHEMERIS_TYPE":0,"CLASSIFICATION_TYPE":"U","NORAD_CAT_ID":40663,"ELEMENT_SET_NO":999,"REV_AT_EPOCH":3965,"BSTAR":0,"MEAN_MOTION_DOT":-1.22e-6,"MEAN_MOTION_DDOT":0},{"OBJECT_NAME":"SKY MEXICO-1","OBJECT_ID":"2015-026B","EPOCH":"2026-03-28T21:15:20.869344","MEAN_MOTION":1.0026932,"ECCENTRICITY":0.000239,"INCLINATION":0.0237,"RA_OF_ASC_NODE":186.2617,"ARG_OF_PERICENTER":202.755,"MEAN_ANOMALY":37.3247,"EPHEMERIS_TYPE":0,"CLASSIFICATION_TYPE":"U","NORAD_CAT_ID":40664,"ELEMENT_SET_NO":999,"REV_AT_EPOCH":3964,"BSTAR":0,"MEAN_MOTION_DOT":0,"MEAN_MOTION_DDOT":0},{"OBJECT_NAME":"METEOSAT-11 (MSG-4)","OBJECT_ID":"2015-034A","EPOCH":"2026-03-28T19:57:48.575808","MEAN_MOTION":1.00273826,"ECCENTRICITY":0.00017798,"INCLINATION":2.9995,"RA_OF_ASC_NODE":71.5348,"ARG_OF_PERICENTER":284.88,"MEAN_ANOMALY":138.506,"EPHEMERIS_TYPE":0,"CLASSIFICATION_TYPE":"U","NORAD_CAT_ID":40732,"ELEMENT_SET_NO":999,"REV_AT_EPOCH":641,"BSTAR":0,"MEAN_MOTION_DOT":4.5e-7,"MEAN_MOTION_DDOT":0},{"OBJECT_NAME":"STAR ONE C4","OBJECT_ID":"2015-034B","EPOCH":"2026-03-28T21:17:50.629056","MEAN_MOTION":1.00272831,"ECCENTRICITY":0.000275,"INCLINATION":0.0525,"RA_OF_ASC_NODE":28.4717,"ARG_OF_PERICENTER":334.5163,"MEAN_ANOMALY":72.7565,"EPHEMERIS_TYPE":0,"CLASSIFICATION_TYPE":"U","NORAD_CAT_ID":40733,"ELEMENT_SET_NO":999,"REV_AT_EPOCH":3920,"BSTAR":0,"MEAN_MOTION_DOT":-2.85e-6,"MEAN_MOTION_DDOT":0},{"OBJECT_NAME":"WGS F7 (USA 263)","OBJECT_ID":"2015-036A","EPOCH":"2026-03-28T20:45:01.276704","MEAN_MOTION":1.00269955,"ECCENTRICITY":6.474e-5,"INCLINATION":0.0221,"RA_OF_ASC_NODE":180.789,"ARG_OF_PERICENTER":282.2032,"MEAN_ANOMALY":209.5268,"EPHEMERIS_TYPE":0,"CLASSIFICATION_TYPE":"U","NORAD_CAT_ID":40746,"ELEMENT_SET_NO":999,"REV_AT_EPOCH":3906,"BSTAR":0,"MEAN_MOTION_DOT":0,"MEAN_MOTION_DDOT":0},{"OBJECT_NAME":"INTELSAT 34 (IS-34)","OBJECT_ID":"2015-039A","EPOCH":"2026-03-28T09:55:26.573664","MEAN_MOTION":1.00281844,"ECCENTRICITY":3.527e-5,"INCLINATION":0.0201,"RA_OF_ASC_NODE":265.7066,"ARG_OF_PERICENTER":116.1591,"MEAN_ANOMALY":257.3304,"EPHEMERIS_TYPE":0,"CLASSIFICATION_TYPE":"U","NORAD_CAT_ID":40874,"ELEMENT_SET_NO":999,"REV_AT_EPOCH":3881,"BSTAR":0,"MEAN_MOTION_DOT":-3.05e-6,"MEAN_MOTION_DDOT":0},{"OBJECT_NAME":"EUTELSAT 8 WEST B","OBJECT_ID":"2015-039B","EPOCH":"2026-03-28T21:35:33.928800","MEAN_MOTION":1.00271982,"ECCENTRICITY":0.00038257,"INCLINATION":0.068,"RA_OF_ASC_NODE":356.1914,"ARG_OF_PERICENTER":13.6315,"MEAN_ANOMALY":132.3761,"EPHEMERIS_TYPE":0,"CLASSIFICATION_TYPE":"U","NORAD_CAT_ID":40875,"ELEMENT_SET_NO":999,"REV_AT_EPOCH":3885,"BSTAR":0,"MEAN_MOTION_DOT":-8.5e-7,"MEAN_MOTION_DDOT":0},{"OBJECT_NAME":"GSAT-6","OBJECT_ID":"2015-041A","EPOCH":"2026-03-28T22:01:23.951712","MEAN_MOTION":1.0027121,"ECCENTRICITY":0.00030097,"INCLINATION":1.7114,"RA_OF_ASC_NODE":83.6004,"ARG_OF_PERICENTER":293.4934,"MEAN_ANOMALY":222.1411,"EPHEMERIS_TYPE":0,"CLASSIFICATION_TYPE":"U","NORAD_CAT_ID":40880,"ELEMENT_SET_NO":999,"REV_AT_EPOCH":3879,"BSTAR":0,"MEAN_MOTION_DOT":-1.79e-6,"MEAN_MOTION_DDOT":0},{"OBJECT_NAME":"INMARSAT 5-F3","OBJECT_ID":"2015-042A","EPOCH":"2026-03-28T09:48:38.770848","MEAN_MOTION":1.00272244,"ECCENTRICITY":0.00014445,"INCLINATION":0.0037,"RA_OF_ASC_NODE":98.425,"ARG_OF_PERICENTER":285.9016,"MEAN_ANOMALY":128.2109,"EPHEMERIS_TYPE":0,"CLASSIFICATION_TYPE":"U","NORAD_CAT_ID":40882,"ELEMENT_SET_NO":999,"REV_AT_EPOCH":3876,"BSTAR":0,"MEAN_MOTION_DOT":3.0e-7,"MEAN_MOTION_DDOT":0},{"OBJECT_NAME":"MUOS-4","OBJECT_ID":"2015-044A","EPOCH":"2026-03-28T11:43:15.963744","MEAN_MOTION":1.00271382,"ECCENTRICITY":0.0059223,"INCLINATION":4.1798,"RA_OF_ASC_NODE":41.6942,"ARG_OF_PERICENTER":359.4507,"MEAN_ANOMALY":35.5051,"EPHEMERIS_TYPE":0,"CLASSIFICATION_TYPE":"U","NORAD_CAT_ID":40887,"ELEMENT_SET_NO":999,"REV_AT_EPOCH":3875,"BSTAR":0,"MEAN_MOTION_DOT":-1.08e-6,"MEAN_MOTION_DDOT":0},{"OBJECT_NAME":"TJS-1","OBJECT_ID":"2015-046A","EPOCH":"2026-03-28T20:39:24.315840","MEAN_MOTION":1.00273113,"ECCENTRICITY":0.00048317,"INCLINATION":0.1175,"RA_OF_ASC_NODE":83.0271,"ARG_OF_PERICENTER":309.935,"MEAN_ANOMALY":258.151,"EPHEMERIS_TYPE":0,"CLASSIFICATION_TYPE":"U","NORAD_CAT_ID":40892,"ELEMENT_SET_NO":999,"REV_AT_EPOCH":3876,"BSTAR":0,"MEAN_MOTION_DOT":-1.75e-6,"MEAN_MOTION_DDOT":0},{"OBJECT_NAME":"EXPRESS-AM8","OBJECT_ID":"2015-048A","EPOCH":"2026-03-27T21:36:21.117888","MEAN_MOTION":1.00271846,"ECCENTRICITY":3.45e-5,"INCLINATION":0.0092,"RA_OF_ASC_NODE":223.4673,"ARG_OF_PERICENTER":56.6227,"MEAN_ANOMALY":215.3106,"EPHEMERIS_TYPE":0,"CLASSIFICATION_TYPE":"U","NORAD_CAT_ID":40895,"ELEMENT_SET_NO":999,"REV_AT_EPOCH":3853,"BSTAR":0,"MEAN_MOTION_DOT":-1.31e-6,"MEAN_MOTION_DDOT":0},{"OBJECT_NAME":"SKY MUSTER 1 (NBN1A)","OBJECT_ID":"2015-054A","EPOCH":"2026-03-28T13:44:26.316384","MEAN_MOTION":1.00273512,"ECCENTRICITY":0.000168,"INCLINATION":0.0129,"RA_OF_ASC_NODE":237.2351,"ARG_OF_PERICENTER":118.2493,"MEAN_ANOMALY":176.8469,"EPHEMERIS_TYPE":0,"CLASSIFICATION_TYPE":"U","NORAD_CAT_ID":40940,"ELEMENT_SET_NO":999,"REV_AT_EPOCH":3845,"BSTAR":0,"MEAN_MOTION_DOT":-2.98e-6,"MEAN_MOTION_DDOT":0},{"OBJECT_NAME":"ARSAT 2","OBJECT_ID":"2015-054B","EPOCH":"2026-03-28T21:14:43.428768","MEAN_MOTION":1.00272206,"ECCENTRICITY":0.00020618,"INCLINATION":0.0369,"RA_OF_ASC_NODE":280.973,"ARG_OF_PERICENTER":69.7376,"MEAN_ANOMALY":73.2507,"EPHEMERIS_TYPE":0,"CLASSIFICATION_TYPE":"U","NORAD_CAT_ID":40941,"ELEMENT_SET_NO":999,"REV_AT_EPOCH":3849,"BSTAR":0,"MEAN_MOTION_DOT":-2.44e-6,"MEAN_MOTION_DDOT":0},{"OBJECT_NAME":"MORELOS 3","OBJECT_ID":"2015-056A","EPOCH":"2026-03-28T15:57:36.048384","MEAN_MOTION":1.00272636,"ECCENTRICITY":0.00033824,"INCLINATION":3.1262,"RA_OF_ASC_NODE":12.8052,"ARG_OF_PERICENTER":359.6829,"MEAN_ANOMALY":299.8671,"EPHEMERIS_TYPE":0,"CLASSIFICATION_TYPE":"U","NORAD_CAT_ID":40946,"ELEMENT_SET_NO":999,"REV_AT_EPOCH":3847,"BSTAR":0,"MEAN_MOTION_DOT":-6.0e-7,"MEAN_MOTION_DDOT":0},{"OBJECT_NAME":"APSTAR-9","OBJECT_ID":"2015-059A","EPOCH":"2026-03-28T22:18:20.204064","MEAN_MOTION":1.00269802,"ECCENTRICITY":0.00013062,"INCLINATION":0.0451,"RA_OF_ASC_NODE":318.1993,"ARG_OF_PERICENTER":289.6061,"MEAN_ANOMALY":55.086,"EPHEMERIS_TYPE":0,"CLASSIFICATION_TYPE":"U","NORAD_CAT_ID":40982,"ELEMENT_SET_NO":999,"REV_AT_EPOCH":3831,"BSTAR":0,"MEAN_MOTION_DOT":-2.86e-6,"MEAN_MOTION_DDOT":0}]
